{"fetched_at":"2026-07-12T07:15:23.207Z","source":"https://celestrak.org/NORAD/elements/gp.php?GROUP=spire&FORMAT=JSON","constellation":"spire","records":[{"OBJECT_NAME":"LEMUR-2-LEIA-PHILIP","OBJECT_ID":"2025-052AN","EPOCH":"2026-07-11T22:17:51.670464","CLASSIFICATION_TYPE":"U","MEAN_MOTION":14.97388264,"ECCENTRICITY":0.00050987,"INCLINATION":97.6813,"RA_OF_ASC_NODE":84.4608,"ARG_OF_PERICENTER":126.4901,"MEAN_ANOMALY":233.6792,"EPHEMERIS_TYPE":0,"NORAD_CAT_ID":63246,"ELEMENT_SET_NO":999,"REV_AT_EPOCH":7237,"BSTAR":0.000074407554,"MEAN_MOTION_DOT":0.00000807,"MEAN_MOTION_DDOT":0},{"OBJECT_NAME":"LEMUR-2-LIA-MARTIN","OBJECT_ID":"2025-052AQ","EPOCH":"2026-07-11T15:47:15.253152","CLASSIFICATION_TYPE":"U","MEAN_MOTION":14.98011715,"ECCENTRICITY":0.00054064,"INCLINATION":97.6875,"RA_OF_ASC_NODE":84.7066,"ARG_OF_PERICENTER":98.5199,"MEAN_ANOMALY":261.6637,"EPHEMERIS_TYPE":0,"NORAD_CAT_ID":63248,"ELEMENT_SET_NO":999,"REV_AT_EPOCH":7234,"BSTAR":0.00027062016,"MEAN_MOTION_DOT":0.00003139,"MEAN_MOTION_DDOT":0},{"OBJECT_NAME":"LEMUR-2-DELOITTE-1","OBJECT_ID":"2025-052BB","EPOCH":"2026-07-11T16:54:27.985248","CLASSIFICATION_TYPE":"U","MEAN_MOTION":14.977659,"ECCENTRICITY":0.00025566,"INCLINATION":97.6886,"RA_OF_ASC_NODE":85.0832,"ARG_OF_PERICENTER":69.2852,"MEAN_ANOMALY":290.8644,"EPHEMERIS_TYPE":0,"NORAD_CAT_ID":63259,"ELEMENT_SET_NO":999,"REV_AT_EPOCH":7236,"BSTAR":0.00019413927,"MEAN_MOTION_DOT":0.0000222,"MEAN_MOTION_DDOT":0},{"OBJECT_NAME":"LEMUR-2-EMERSONROSE","OBJECT_ID":"2025-052BD","EPOCH":"2026-07-11T15:43:49.963296","CLASSIFICATION_TYPE":"U","MEAN_MOTION":14.9927027,"ECCENTRICITY":0.00028124,"INCLINATION":97.6885,"RA_OF_ASC_NODE":85.6401,"ARG_OF_PERICENTER":66.103,"MEAN_ANOMALY":294.0487,"EPHEMERIS_TYPE":0,"NORAD_CAT_ID":63261,"ELEMENT_SET_NO":999,"REV_AT_EPOCH":7240,"BSTAR":0.00025458225,"MEAN_MOTION_DOT":0.00003048,"MEAN_MOTION_DDOT":0},{"OBJECT_NAME":"LEMUR-2-MARACHE-FRAN","OBJECT_ID":"2025-052BE","EPOCH":"2026-07-11T16:20:01.347360","CLASSIFICATION_TYPE":"U","MEAN_MOTION":15.00302061,"ECCENTRICITY":0.00048145,"INCLINATION":97.6854,"RA_OF_ASC_NODE":86.0285,"ARG_OF_PERICENTER":268.4363,"MEAN_ANOMALY":91.6309,"EPHEMERIS_TYPE":0,"NORAD_CAT_ID":63262,"ELEMENT_SET_NO":999,"REV_AT_EPOCH":7243,"BSTAR":0.00016161337,"MEAN_MOTION_DOT":0.00001966,"MEAN_MOTION_DDOT":0},{"OBJECT_NAME":"LEMUR-2-THEFALCONER","OBJECT_ID":"2025-052BG","EPOCH":"2026-07-11T22:26:15.264096","CLASSIFICATION_TYPE":"U","MEAN_MOTION":14.97555399,"ECCENTRICITY":0.00004741,"INCLINATION":97.6847,"RA_OF_ASC_NODE":84.9044,"ARG_OF_PERICENTER":3.9992,"MEAN_ANOMALY":356.1234,"EPHEMERIS_TYPE":0,"NORAD_CAT_ID":63264,"ELEMENT_SET_NO":999,"REV_AT_EPOCH":7239,"BSTAR":0.00013628316,"MEAN_MOTION_DOT":0.00001533,"MEAN_MOTION_DDOT":0},{"OBJECT_NAME":"LEMUR-2-UNTITLED-SC","OBJECT_ID":"2025-061A","EPOCH":"2026-07-11T21:07:57.540576","CLASSIFICATION_TYPE":"U","MEAN_MOTION":15.13633127,"ECCENTRICITY":0.00188645,"INCLINATION":97.5648,"RA_OF_ASC_NODE":168.0663,"ARG_OF_PERICENTER":174.3063,"MEAN_ANOMALY":185.8386,"EPHEMERIS_TYPE":0,"NORAD_CAT_ID":63351,"ELEMENT_SET_NO":999,"REV_AT_EPOCH":7132,"BSTAR":0.00013422853,"MEAN_MOTION_DOT":0.00002354,"MEAN_MOTION_DDOT":0},{"OBJECT_NAME":"LEMUR-2-ESPERANZA","OBJECT_ID":"2025-061B","EPOCH":"2026-07-11T20:32:46.534560","CLASSIFICATION_TYPE":"U","MEAN_MOTION":15.13740291,"ECCENTRICITY":0.00184794,"INCLINATION":97.5655,"RA_OF_ASC_NODE":168.1412,"ARG_OF_PERICENTER":173.5696,"MEAN_ANOMALY":186.5776,"EPHEMERIS_TYPE":0,"NORAD_CAT_ID":63352,"ELEMENT_SET_NO":999,"REV_AT_EPOCH":7132,"BSTAR":0.00010385192,"MEAN_MOTION_DOT":0.00001811,"MEAN_MOTION_DDOT":0},{"OBJECT_NAME":"LEMUR-2-KREMPEL-BRO2","OBJECT_ID":"2025-061C","EPOCH":"2026-07-11T21:01:26.882112","CLASSIFICATION_TYPE":"U","MEAN_MOTION":15.14165574,"ECCENTRICITY":0.00196576,"INCLINATION":97.5701,"RA_OF_ASC_NODE":168.726,"ARG_OF_PERICENTER":166.3368,"MEAN_ANOMALY":193.84,"EPHEMERIS_TYPE":0,"NORAD_CAT_ID":63353,"ELEMENT_SET_NO":999,"REV_AT_EPOCH":7134,"BSTAR":0.00013630593,"MEAN_MOTION_DOT":0.00002429,"MEAN_MOTION_DDOT":0},{"OBJECT_NAME":"LEMUR-2-THERMORAPTOR","OBJECT_ID":"2025-061D","EPOCH":"2026-07-11T22:08:52.094688","CLASSIFICATION_TYPE":"U","MEAN_MOTION":15.14249085,"ECCENTRICITY":0.00194269,"INCLINATION":97.5705,"RA_OF_ASC_NODE":168.8529,"ARG_OF_PERICENTER":165.0621,"MEAN_ANOMALY":195.1189,"EPHEMERIS_TYPE":0,"NORAD_CAT_ID":63354,"ELEMENT_SET_NO":999,"REV_AT_EPOCH":7135,"BSTAR":0.00011069784,"MEAN_MOTION_DOT":0.00001965,"MEAN_MOTION_DDOT":0},{"OBJECT_NAME":"LEMUR-2-NEUROSPICY","OBJECT_ID":"2025-061E","EPOCH":"2026-07-11T19:50:11.235552","CLASSIFICATION_TYPE":"U","MEAN_MOTION":15.14366383,"ECCENTRICITY":0.00171151,"INCLINATION":97.5633,"RA_OF_ASC_NODE":168.3643,"ARG_OF_PERICENTER":168.1718,"MEAN_ANOMALY":191.9919,"EPHEMERIS_TYPE":0,"NORAD_CAT_ID":63355,"ELEMENT_SET_NO":999,"REV_AT_EPOCH":7134,"BSTAR":0.00012870245,"MEAN_MOTION_DOT":0.00002301,"MEAN_MOTION_DDOT":0},{"OBJECT_NAME":"LEMUR-2-TILLINFINITY","OBJECT_ID":"2025-061F","EPOCH":"2026-07-11T20:27:17.656416","CLASSIFICATION_TYPE":"U","MEAN_MOTION":15.1495071,"ECCENTRICITY":0.00187214,"INCLINATION":97.5619,"RA_OF_ASC_NODE":168.6977,"ARG_OF_PERICENTER":156.9449,"MEAN_ANOMALY":203.2627,"EPHEMERIS_TYPE":0,"NORAD_CAT_ID":63356,"ELEMENT_SET_NO":999,"REV_AT_EPOCH":7137,"BSTAR":0.00010879834,"MEAN_MOTION_DOT":0.00001969,"MEAN_MOTION_DDOT":0},{"OBJECT_NAME":"LEMUR-2-KREMPEL-BRO1","OBJECT_ID":"2025-061G","EPOCH":"2026-07-11T19:53:38.033952","CLASSIFICATION_TYPE":"U","MEAN_MOTION":15.14757547,"ECCENTRICITY":0.00193037,"INCLINATION":97.562,"RA_OF_ASC_NODE":168.5836,"ARG_OF_PERICENTER":158.3242,"MEAN_ANOMALY":201.8812,"EPHEMERIS_TYPE":0,"NORAD_CAT_ID":63357,"ELEMENT_SET_NO":999,"REV_AT_EPOCH":7136,"BSTAR":0.00012393531,"MEAN_MOTION_DOT":0.0000224,"MEAN_MOTION_DDOT":0},{"OBJECT_NAME":"LEMUR-2-LANGER2SPACE","OBJECT_ID":"2025-061H","EPOCH":"2026-07-11T11:08:03.117408","CLASSIFICATION_TYPE":"U","MEAN_MOTION":15.14450351,"ECCENTRICITY":0.00170352,"INCLINATION":97.5624,"RA_OF_ASC_NODE":168.0248,"ARG_OF_PERICENTER":167.812,"MEAN_ANOMALY":192.3528,"EPHEMERIS_TYPE":0,"NORAD_CAT_ID":63358,"ELEMENT_SET_NO":999,"REV_AT_EPOCH":7129,"BSTAR":0.000124128,"MEAN_MOTION_DOT":0.00002222,"MEAN_MOTION_DDOT":0},{"OBJECT_NAME":"LEMUR-2-BALTO","OBJECT_ID":"2025-052BH","EPOCH":"2026-07-11T22:21:48.807360","CLASSIFICATION_TYPE":"U","MEAN_MOTION":15.00345942,"ECCENTRICITY":0.00052838,"INCLINATION":97.6934,"RA_OF_ASC_NODE":86.2615,"ARG_OF_PERICENTER":341.2024,"MEAN_ANOMALY":18.9004,"EPHEMERIS_TYPE":0,"NORAD_CAT_ID":63395,"ELEMENT_SET_NO":999,"REV_AT_EPOCH":7247,"BSTAR":0.00024849275,"MEAN_MOTION_DOT":0.00003059,"MEAN_MOTION_DDOT":0},{"OBJECT_NAME":"LEMUR-2-KRISH","OBJECT_ID":"2025-135AK","EPOCH":"2026-07-11T19:36:33.699744","CLASSIFICATION_TYPE":"U","MEAN_MOTION":14.96434298,"ECCENTRICITY":0.00016273,"INCLINATION":97.777,"RA_OF_ASC_NODE":307.5283,"ARG_OF_PERICENTER":96.8966,"MEAN_ANOMALY":263.2441,"EPHEMERIS_TYPE":0,"NORAD_CAT_ID":64561,"ELEMENT_SET_NO":999,"REV_AT_EPOCH":5760,"BSTAR":0.00023929928,"MEAN_MOTION_DOT":0.00002656,"MEAN_MOTION_DDOT":0}]}
